{
  "type": "FeatureCollection",
  "features": [
    {
      "type": "Feature",
      "properties": {
        "norad_id": 43719,
        "name": "HYSIS",
        "group": "resource",
        "lat": 65.05497824564837,
        "lon": -120.54468540918633,
        "alt_km": 626.6342125706287,
        "timestamp": "2025-12-04T19:33:59.289028+00:00",
        "meta_object_name": "HYSIS",
        "meta_object_id": "2018-096A",
        "meta_epoch": "2025-12-04T15:48:22.076640",
        "meta_mean_motion": 14.78609198,
        "meta_eccentricity": 0.0001615,
        "meta_inclination": 98.0108,
        "meta_ra_of_asc_node": 41.6757,
        "meta_arg_of_pericenter": 64.8201,
        "meta_mean_anomaly": 295.3177,
        "meta_ephemeris_type": 0,
        "meta_classification_type": "U",
        "meta_norad_cat_id": 43719,
        "meta_element_set_no": 999,
        "meta_rev_at_epoch": 37867,
        "meta_bstar": 3.5541e-05,
        "meta_mean_motion_dot": 2.08e-06,
        "meta_mean_motion_ddot": 0,
        "tle_line1": "1 43719U 18096A   25338.65858885  .00000208  00000+0  35541-4 0  9993",
        "tle_line2": "2 43719  98.0108  41.6757 0001615  64.8201 295.3177 14.78609198378674"
      },
      "geometry": {
        "type": "Point",
        "coordinates": [
          -120.54468540918633,
          65.05497824564837
        ]
      }
    },
    {
      "type": "Feature",
      "properties": {
        "norad_id": 43783,
        "name": "KAZSTSAT",
        "group": "resource",
        "lat": 58.687252398342466,
        "lon": -153.22792185135418,
        "alt_km": 565.6644093456198,
        "timestamp": "2025-12-04T19:33:59.289037+00:00",
        "meta_object_name": "KAZSTSAT",
        "meta_object_id": "2018-099AB",
        "meta_epoch": "2025-12-04T01:24:44.238240",
        "meta_mean_motion": 14.99307288,
        "meta_eccentricity": 0.00064904,
        "meta_inclination": 97.4553,
        "meta_ra_of_asc_node": 13.6171,
        "meta_arg_of_pericenter": 2.5271,
        "meta_mean_anomaly": 357.5985,
        "meta_ephemeris_type": 0,
        "meta_classification_type": "U",
        "meta_norad_cat_id": 43783,
        "meta_element_set_no": 999,
        "meta_rev_at_epoch": 38206,
        "meta_bstar": 0.00027331739,
        "meta_mean_motion_dot": 3.283e-05,
        "meta_mean_motion_ddot": 0,
        "tle_line1": "1 43783U 18099AB  25338.05884535  .00003283  00000+0  27332-3 0  9996",
        "tle_line2": "2 43783  97.4553  13.6171 0006490   2.5271 357.5985 14.99307288382067"
      },
      "geometry": {
        "type": "Point",
        "coordinates": [
          -153.22792185135418,
          58.687252398342466
        ]
      }
    },
    {
      "type": "Feature",
      "properties": {
        "norad_id": 43831,
        "name": "SAUDISAT 5A",
        "group": "resource",
        "lat": 34.030096661729694,
        "lon": -135.8479935987629,
        "alt_km": 481.4640089718687,
        "timestamp": "2025-12-04T19:33:59.289048+00:00",
        "meta_object_name": "SAUDISAT 5A",
        "meta_object_id": "2018-102A",
        "meta_epoch": "2025-12-04T07:54:41.937984",
        "meta_mean_motion": 15.25494375,
        "meta_eccentricity": 0.00117851,
        "meta_inclination": 97.337,
        "meta_ra_of_asc_node": 38.6842,
        "meta_arg_of_pericenter": 102.0395,
        "meta_mean_anomaly": 258.2165,
        "meta_ephemeris_type": 0,
        "meta_classification_type": "U",
        "meta_norad_cat_id": 43831,
        "meta_element_set_no": 999,
        "meta_rev_at_epoch": 38594,
        "meta_bstar": 0.00056901189,
        "meta_mean_motion_dot": 0.00014381,
        "meta_mean_motion_ddot": 0,
        "tle_line1": "1 43831U 18102A   25338.32965206  .00014381  00000+0  56901-3 0  9995",
        "tle_line2": "2 43831  97.3370  38.6842 0011785 102.0395 258.2165 15.25494375385946"
      },
      "geometry": {
        "type": "Point",
        "coordinates": [
          -135.8479935987629,
          34.030096661729694
        ]
      }
    },
    {
      "type": "Feature",
      "properties": {
        "norad_id": 43833,
        "name": "SAUDISAT 5B",
        "group": "resource",
        "lat": -7.799602381905266,
        "lon": -139.12794543160655,
        "alt_km": 491.4615722934341,
        "timestamp": "2025-12-04T19:33:59.289057+00:00",
        "meta_object_name": "SAUDISAT 5B",
        "meta_object_id": "2018-102C",
        "meta_epoch": "2025-12-04T07:43:48.621792",
        "meta_mean_motion": 15.25851781,
        "meta_eccentricity": 0.00124995,
        "meta_inclination": 97.3466,
        "meta_ra_of_asc_node": 41.4001,
        "meta_arg_of_pericenter": 104.6378,
        "meta_mean_anomaly": 255.6247,
        "meta_ephemeris_type": 0,
        "meta_classification_type": "U",
        "meta_norad_cat_id": 43833,
        "meta_element_set_no": 999,
        "meta_rev_at_epoch": 38605,
        "meta_bstar": 0.00054318554,
        "meta_mean_motion_dot": 0.00013876,
        "meta_mean_motion_ddot": 0,
        "tle_line1": "1 43833U 18102C   25338.32209053  .00013876  00000+0  54319-3 0  9997",
        "tle_line2": "2 43833  97.3466  41.4001 0012499 104.6378 255.6247 15.25851781386058"
      },
      "geometry": {
        "type": "Point",
        "coordinates": [
          -139.12794543160655,
          -7.799602381905266
        ]
      }
    },
    {
      "type": "Feature",
      "properties": {
        "norad_id": 44622,
        "name": "GAOFEN-10R",
        "group": "resource",
        "lat": -77.25031719144886,
        "lon": -35.12766933808684,
        "alt_km": 632.6316944941154,
        "timestamp": "2025-12-04T19:33:59.289066+00:00",
        "meta_object_name": "GAOFEN-10R",
        "meta_object_id": "2019-066A",
        "meta_epoch": "2025-12-04T08:35:24.135936",
        "meta_mean_motion": 14.82746176,
        "meta_eccentricity": 0.00082506,
        "meta_inclination": 98.0265,
        "meta_ra_of_asc_node": 285.8322,
        "meta_arg_of_pericenter": 64.9461,
        "meta_mean_anomaly": 295.2607,
        "meta_ephemeris_type": 0,
        "meta_classification_type": "U",
        "meta_norad_cat_id": 44622,
        "meta_element_set_no": 999,
        "meta_rev_at_epoch": 33350,
        "meta_bstar": 0.00050604469,
        "meta_mean_motion_dot": 4.036e-05,
        "meta_mean_motion_ddot": 0,
        "tle_line1": "1 44622U 19066A   25338.35791824  .00004036  00000+0  50604-3 0  9990",
        "tle_line2": "2 44622  98.0265 285.8322 0008250  64.9461 295.2607 14.82746176333506"
      },
      "geometry": {
        "type": "Point",
        "coordinates": [
          -35.12766933808684,
          -77.25031719144886
        ]
      }
    },
    {
      "type": "Feature",
      "properties": {
        "norad_id": 44804,
        "name": "CARTOSAT-3",
        "group": "resource",
        "lat": 55.7442995911926,
        "lon": -130.4078389988237,
        "alt_km": 493.41137495363546,
        "timestamp": "2025-12-04T19:33:59.289075+00:00",
        "meta_object_name": "CARTOSAT-3",
        "meta_object_id": "2019-081A",
        "meta_epoch": "2025-12-04T07:57:38.085120",
        "meta_mean_motion": 15.19255431,
        "meta_eccentricity": 0.0013896,
        "meta_inclination": 97.4601,
        "meta_ra_of_asc_node": 38.0211,
        "meta_arg_of_pericenter": 113.6726,
        "meta_mean_anomaly": 246.5969,
        "meta_ephemeris_type": 0,
        "meta_classification_type": "U",
        "meta_norad_cat_id": 44804,
        "meta_element_set_no": 999,
        "meta_rev_at_epoch": 33388,
        "meta_bstar": 0.00034728,
        "meta_mean_motion_dot": 7.272e-05,
        "meta_mean_motion_ddot": 0,
        "tle_line1": "1 44804U 19081A   25338.33169080  .00007272  00000+0  34728-3 0  9994",
        "tle_line2": "2 44804  97.4601  38.0211 0013896 113.6726 246.5969 15.19255431333889"
      },
      "geometry": {
        "type": "Point",
        "coordinates": [
          -130.4078389988237,
          55.7442995911926
        ]
      }
    },
    {
      "type": "Feature",
      "properties": {
        "norad_id": 44819,
        "name": "GAOFEN-12 01",
        "group": "resource",
        "lat": -66.37463058942652,
        "lon": 147.0101738812146,
        "alt_km": 633.9072541173155,
        "timestamp": "2025-12-04T19:33:59.289084+00:00",
        "meta_object_name": "GAOFEN-12 01",
        "meta_object_id": "2019-082A",
        "meta_epoch": "2025-12-04T07:05:53.208672",
        "meta_mean_motion": 14.80642396,
        "meta_eccentricity": 0.00012381,
        "meta_inclination": 97.8128,
        "meta_ra_of_asc_node": 344.7984,
        "meta_arg_of_pericenter": 292.2965,
        "meta_mean_anomaly": 67.8116,
        "meta_ephemeris_type": 0,
        "meta_classification_type": "U",
        "meta_norad_cat_id": 44819,
        "meta_element_set_no": 999,
        "meta_rev_at_epoch": 32525,
        "meta_bstar": 0.00014179471,
        "meta_mean_motion_dot": 1.038e-05,
        "meta_mean_motion_ddot": 0,
        "tle_line1": "1 44819U 19082A   25338.29575473  .00001038  00000+0  14179-3 0  9995",
        "tle_line2": "2 44819  97.8128 344.7984 0001238 292.2965  67.8116 14.80642396325250"
      },
      "geometry": {
        "type": "Point",
        "coordinates": [
          147.0101738812146,
          -66.37463058942652
        ]
      }
    }
  ]
}